[{"CCSDS_OMM_VERS":"2.0","COMMENT":"GENERATED VIA SPACE-TRACK.ORG API","CREATION_DATE":"2023-05-18T19:42:53","ORIGINATOR":"18 SPCS","OBJECT_NAME":"KSF3-C","OBJECT_ID":"2023-001K","CENTER_NAME":"EARTH","REF_FRAME":"TEME","TIME_SYSTEM":"UTC","MEAN_ELEMENT_THEORY":"SGP4","EPOCH":"2023-05-18T13:08:21.509952","MEAN_MOTION":"15.16205724","ECCENTRICITY":"0.00121460","INCLINATION":"97.4792","RA_OF_ASC_NODE":"198.5077","ARG_OF_PERICENTER":"116.9986","MEAN_ANOMALY":"243.2488","EPHEMERIS_TYPE":"0","CLASSIFICATION_TYPE":"U","NORAD_CAT_ID":"55018","ELEMENT_SET_NO":"999","REV_AT_EPOCH":"2057","BSTAR":"0.00045129000000","MEAN_MOTION_DOT":"0.00008671","MEAN_MOTION_DDOT":"0.0000000000000","SEMIMAJOR_AXIS":"6895.458","PERIOD":"94.974","APOAPSIS":"525.698","PERIAPSIS":"508.947","OBJECT_TYPE":"PAYLOAD","RCS_SIZE":"MEDIUM","COUNTRY_CODE":"LUXE","LAUNCH_DATE":"2023-01-03","SITE":"AFETR","DECAY_DATE":null,"FILE":"3911221","GP_ID":"232086577","TLE_LINE0":"0 KSF3-C","TLE_LINE1":"1 55018U 23001K   23138.54747118  .00008671  00000-0  45129-3 0  9995","TLE_LINE2":"2 55018  97.4792 198.5077 0012146 116.9986 243.2488 15.16205724 20578"},{"CCSDS_OMM_VERS":"2.0","COMMENT":"GENERATED VIA SPACE-TRACK.ORG API","CREATION_DATE":"2023-05-18T22:26:12","ORIGINATOR":"18 SPCS","OBJECT_NAME":"KSF3-C","OBJECT_ID":"2023-001K","CENTER_NAME":"EARTH","REF_FRAME":"TEME","TIME_SYSTEM":"UTC","MEAN_ELEMENT_THEORY":"SGP4","EPOCH":"2023-05-18T16:18:25.617024","MEAN_MOTION":"15.16208241","ECCENTRICITY":"0.00121400","INCLINATION":"97.4792","RA_OF_ASC_NODE":"198.6378","ARG_OF_PERICENTER":"116.6158","MEAN_ANOMALY":"243.6320","EPHEMERIS_TYPE":"0","CLASSIFICATION_TYPE":"U","NORAD_CAT_ID":"55018","ELEMENT_SET_NO":"999","REV_AT_EPOCH":"2059","BSTAR":"0.00044749000000","MEAN_MOTION_DOT":"0.00008598","MEAN_MOTION_DDOT":"0.0000000000000","SEMIMAJOR_AXIS":"6895.450","PERIOD":"94.974","APOAPSIS":"525.686","PERIAPSIS":"508.944","OBJECT_TYPE":"PAYLOAD","RCS_SIZE":"MEDIUM","COUNTRY_CODE":"LUXE","LAUNCH_DATE":"2023-01-03","SITE":"AFETR","DECAY_DATE":null,"FILE":"3911266","GP_ID":"232090011","TLE_LINE0":"0 KSF3-C","TLE_LINE1":"1 55018U 23001K   23138.67946316  .00008598  00000-0  44749-3 0  9995","TLE_LINE2":"2 55018  97.4792 198.6378 0012140 116.6158 243.6320 15.16208241 20593"},{"CCSDS_OMM_VERS":"2.0","COMMENT":"GENERATED VIA SPACE-TRACK.ORG API","CREATION_DATE":"2023-05-19T04:51:57","ORIGINATOR":"18 SPCS","OBJECT_NAME":"KSF3-C","OBJECT_ID":"2023-001K","CENTER_NAME":"EARTH","REF_FRAME":"TEME","TIME_SYSTEM":"UTC","MEAN_ELEMENT_THEORY":"SGP4","EPOCH":"2023-05-18T21:03:31.762944","MEAN_MOTION":"15.16211370","ECCENTRICITY":"0.00121410","INCLINATION":"97.4791","RA_OF_ASC_NODE":"198.8330","ARG_OF_PERICENTER":"116.0254","MEAN_ANOMALY":"244.2230","EPHEMERIS_TYPE":"0","CLASSIFICATION_TYPE":"U","NORAD_CAT_ID":"55018","ELEMENT_SET_NO":"999","REV_AT_EPOCH":"2062","BSTAR":"0.00044504000000","MEAN_MOTION_DOT":"0.00008551","MEAN_MOTION_DDOT":"0.0000000000000","SEMIMAJOR_AXIS":"6895.440","PERIOD":"94.974","APOAPSIS":"525.677","PERIAPSIS":"508.934","OBJECT_TYPE":"PAYLOAD","RCS_SIZE":"MEDIUM","COUNTRY_CODE":"LUXE","LAUNCH_DATE":"2023-01-03","SITE":"AFETR","DECAY_DATE":null,"FILE":"3911388","GP_ID":"232118307","TLE_LINE0":"0 KSF3-C","TLE_LINE1":"1 55018U 23001K   23138.87745096  .00008551  00000-0  44504-3 0  9997","TLE_LINE2":"2 55018  97.4791 198.8330 0012141 116.0254 244.2230 15.16211370 20622"},{"CCSDS_OMM_VERS":"2.0","COMMENT":"GENERATED VIA SPACE-TRACK.ORG API","CREATION_DATE":"2023-05-19T06:26:12","ORIGINATOR":"18 SPCS","OBJECT_NAME":"KSF3-C","OBJECT_ID":"2023-001K","CENTER_NAME":"EARTH","REF_FRAME":"TEME","TIME_SYSTEM":"UTC","MEAN_ELEMENT_THEORY":"SGP4","EPOCH":"2023-05-19T03:23:39.882048","MEAN_MOTION":"15.16216606","ECCENTRICITY":"0.00121250","INCLINATION":"97.4790","RA_OF_ASC_NODE":"199.0933","ARG_OF_PERICENTER":"115.2587","MEAN_ANOMALY":"244.9904","EPHEMERIS_TYPE":"0","CLASSIFICATION_TYPE":"U","NORAD_CAT_ID":"55018","ELEMENT_SET_NO":"999","REV_AT_EPOCH":"2066","BSTAR":"0.00045809000000","MEAN_MOTION_DOT":"0.00008806","MEAN_MOTION_DDOT":"0.0000000000000","SEMIMAJOR_AXIS":"6895.425","PERIOD":"94.973","APOAPSIS":"525.650","PERIAPSIS":"508.929","OBJECT_TYPE":"PAYLOAD","RCS_SIZE":"MEDIUM","COUNTRY_CODE":"LUXE","LAUNCH_DATE":"2023-01-03","SITE":"AFETR","DECAY_DATE":null,"FILE":"3911442","GP_ID":"232120528","TLE_LINE0":"0 KSF3-C","TLE_LINE1":"1 55018U 23001K   23139.14143382  .00008806  00000-0  45809-3 0  9990","TLE_LINE2":"2 55018  97.4790 199.0933 0012125 115.2587 244.9904 15.16216606 20661"},{"CCSDS_OMM_VERS":"2.0","COMMENT":"GENERATED VIA SPACE-TRACK.ORG API","CREATION_DATE":"2023-05-19T14:36:12","ORIGINATOR":"18 SPCS","OBJECT_NAME":"KSF3-C","OBJECT_ID":"2023-001K","CENTER_NAME":"EARTH","REF_FRAME":"TEME","TIME_SYSTEM":"UTC","MEAN_ELEMENT_THEORY":"SGP4","EPOCH":"2023-05-19T09:43:47.925984","MEAN_MOTION":"15.16221379","ECCENTRICITY":"0.00121210","INCLINATION":"97.4789","RA_OF_ASC_NODE":"199.3535","ARG_OF_PERICENTER":"114.4467","MEAN_ANOMALY":"245.8032","EPHEMERIS_TYPE":"0","CLASSIFICATION_TYPE":"U","NORAD_CAT_ID":"55018","ELEMENT_SET_NO":"999","REV_AT_EPOCH":"2070","BSTAR":"0.00045730000000","MEAN_MOTION_DOT":"0.00008791","MEAN_MOTION_DDOT":"0.0000000000000","SEMIMAJOR_AXIS":"6895.410","PERIOD":"94.973","APOAPSIS":"525.633","PERIAPSIS":"508.917","OBJECT_TYPE":"PAYLOAD","RCS_SIZE":"MEDIUM","COUNTRY_CODE":"LUXE","LAUNCH_DATE":"2023-01-03","SITE":"AFETR","DECAY_DATE":null,"FILE":"3911790","GP_ID":"232128318","TLE_LINE0":"0 KSF3-C","TLE_LINE1":"1 55018U 23001K   23139.40541581  .00008791  00000-0  45730-3 0  9998","TLE_LINE2":"2 55018  97.4789 199.3535 0012121 114.4467 245.8032 15.16221379 20704"},{"CCSDS_OMM_VERS":"2.0","COMMENT":"GENERATED VIA SPACE-TRACK.ORG API","CREATION_DATE":"2023-05-19T22:26:12","ORIGINATOR":"18 SPCS","OBJECT_NAME":"KSF3-C","OBJECT_ID":"2023-001K","CENTER_NAME":"EARTH","REF_FRAME":"TEME","TIME_SYSTEM":"UTC","MEAN_ELEMENT_THEORY":"SGP4","EPOCH":"2023-05-19T17:38:57.879168","MEAN_MOTION":"15.16228139","ECCENTRICITY":"0.00121040","INCLINATION":"97.4788","RA_OF_ASC_NODE":"199.6787","ARG_OF_PERICENTER":"113.4908","MEAN_ANOMALY":"246.7598","EPHEMERIS_TYPE":"0","CLASSIFICATION_TYPE":"U","NORAD_CAT_ID":"55018","ELEMENT_SET_NO":"999","REV_AT_EPOCH":"2075","BSTAR":"0.00048155000000","MEAN_MOTION_DOT":"0.00009263","MEAN_MOTION_DDOT":"0.0000000000000","SEMIMAJOR_AXIS":"6895.390","PERIOD":"94.973","APOAPSIS":"525.601","PERIAPSIS":"508.908","OBJECT_TYPE":"PAYLOAD","RCS_SIZE":"MEDIUM","COUNTRY_CODE":"LUXE","LAUNCH_DATE":"2023-01-03","SITE":"AFETR","DECAY_DATE":null,"FILE":"3912068","GP_ID":"232133461","TLE_LINE0":"0 KSF3-C","TLE_LINE1":"1 55018U 23001K   23139.73539212  .00009263  00000-0  48155-3 0  9991","TLE_LINE2":"2 55018  97.4788 199.6787 0012104 113.4908 246.7598 15.16228139 20758"},{"CCSDS_OMM_VERS":"2.0","COMMENT":"GENERATED VIA SPACE-TRACK.ORG API","CREATION_DATE":"2023-05-20T02:43:18","ORIGINATOR":"18 SPCS","OBJECT_NAME":"KSF3-C","OBJECT_ID":"2023-001K","CENTER_NAME":"EARTH","REF_FRAME":"TEME","TIME_SYSTEM":"UTC","MEAN_ELEMENT_THEORY":"SGP4","EPOCH":"2023-05-19T22:24:03.778848","MEAN_MOTION":"15.16232618","ECCENTRICITY":"0.00120890","INCLINATION":"97.4787","RA_OF_ASC_NODE":"199.8739","ARG_OF_PERICENTER":"112.9236","MEAN_ANOMALY":"247.3274","EPHEMERIS_TYPE":"0","CLASSIFICATION_TYPE":"U","NORAD_CAT_ID":"55018","ELEMENT_SET_NO":"999","REV_AT_EPOCH":"2078","BSTAR":"0.00051360000000","MEAN_MOTION_DOT":"0.00009887","MEAN_MOTION_DDOT":"0.0000000000000","SEMIMAJOR_AXIS":"6895.376","PERIOD":"94.972","APOAPSIS":"525.577","PERIAPSIS":"508.905","OBJECT_TYPE":"PAYLOAD","RCS_SIZE":"MEDIUM","COUNTRY_CODE":"LUXE","LAUNCH_DATE":"2023-01-03","SITE":"AFETR","DECAY_DATE":null,"FILE":"3912278","GP_ID":"232163829","TLE_LINE0":"0 KSF3-C","TLE_LINE1":"1 55018U 23001K   23139.93337707  .00009887  00000-0  51360-3 0  9992","TLE_LINE2":"2 55018  97.4787 199.8739 0012089 112.9236 247.3274 15.16232618 20784"},{"CCSDS_OMM_VERS":"2.0","COMMENT":"GENERATED VIA SPACE-TRACK.ORG API","CREATION_DATE":"2023-05-20T06:26:11","ORIGINATOR":"18 SPCS","OBJECT_NAME":"KSF3-C","OBJECT_ID":"2023-001K","CENTER_NAME":"EARTH","REF_FRAME":"TEME","TIME_SYSTEM":"UTC","MEAN_ELEMENT_THEORY":"SGP4","EPOCH":"2023-05-20T03:09:09.645696","MEAN_MOTION":"15.16236966","ECCENTRICITY":"0.00120760","INCLINATION":"97.4786","RA_OF_ASC_NODE":"200.0690","ARG_OF_PERICENTER":"112.3099","MEAN_ANOMALY":"247.9415","EPHEMERIS_TYPE":"0","CLASSIFICATION_TYPE":"U","NORAD_CAT_ID":"55018","ELEMENT_SET_NO":"999","REV_AT_EPOCH":"2081","BSTAR":"0.00053145000000","MEAN_MOTION_DOT":"0.00010234","MEAN_MOTION_DDOT":"0.0000000000000","SEMIMAJOR_AXIS":"6895.363","PERIOD":"94.972","APOAPSIS":"525.555","PERIAPSIS":"508.901","OBJECT_TYPE":"PAYLOAD","RCS_SIZE":"MEDIUM","COUNTRY_CODE":"LUXE","LAUNCH_DATE":"2023-01-03","SITE":"AFETR","DECAY_DATE":null,"FILE":"3912299","GP_ID":"232165693","TLE_LINE0":"0 KSF3-C","TLE_LINE1":"1 55018U 23001K   23140.13136164  .00010234  00000-0  53145-3 0  9991","TLE_LINE2":"2 55018  97.4786 200.0690 0012076 112.3099 247.9415 15.16236966 20818"}]